{"type": "FeatureCollection", "features": [ {"type": "Feature", "properties": {"norad_id": 34077, "name": "IRIDIUM 33 DEB", "group": "iridium-33-debris", "lat": 11.33232962753615, "lon": 53.60735725561363, "alt_km": 673.4405361729596, "timestamp": "2025-12-09T14:52:26.547487+00:00", "meta": {"OBJECT_NAME": "IRIDIUM 33 DEB", "OBJECT_ID": "1997-051CL", "EPOCH": "2025-12-09T06:56:34.628352", "MEAN_MOTION": 14.64759036, "ECCENTRICITY": 0.00105488, "INCLINATION": 86.3858, "RA_OF_ASC_NODE": 53.0271, "ARG_OF_PERICENTER": 50.3896, "MEAN_ANOMALY": 19.714, "EPHEMERIS_TYPE": 0, "CLASSIFICATION_TYPE": "U", "NORAD_CAT_ID": 34077, "ELEMENT_SET_NO": 999, "REV_AT_EPOCH": 88282, "BSTAR": 0.0022106666, "MEAN_MOTION_DOT": 0.00011819, "MEAN_MOTION_DDOT": 0}, "tle": {"line1": "1 34077U 97051CL  25343.28928968  .00011819  00000+0  22107-2 0  9995", "line2": "2 34077  86.3858  53.0271 0010548  50.3896  19.7140 14.64759036882823"}}, "geometry": {"type": "Point", "coordinates": [53.60735725561363, 11.33232962753615]}}, {"type": "Feature", "properties": {"norad_id": 34079, "name": "IRIDIUM 33 DEB", "group": "iridium-33-debris", "lat": 25.744158148343356, "lon": -171.66981398233398, "alt_km": 620.9988172448402, "timestamp": "2025-12-09T14:52:26.547497+00:00", "meta": {"OBJECT_NAME": "IRIDIUM 33 DEB", "OBJECT_ID": "1997-051CN", "EPOCH": "2025-12-09T03:09:08.419680", "MEAN_MOTION": 14.83376544, "ECCENTRICITY": 0.0006064, "INCLINATION": 86.3775, "RA_OF_ASC_NODE": 10.3028, "ARG_OF_PERICENTER": 19.2898, "MEAN_ANOMALY": 48.3139, "EPHEMERIS_TYPE": 0, "CLASSIFICATION_TYPE": "U", "NORAD_CAT_ID": 34079, "ELEMENT_SET_NO": 999, "REV_AT_EPOCH": 88924, "BSTAR": 0.0018399055, "MEAN_MOTION_DOT": 0.0001513, "MEAN_MOTION_DDOT": 0}, "tle": {"line1": "1 34079U 97051CN  25343.13134745  .00015130  00000+0  18399-2 0  9991", "line2": "2 34079  86.3775  10.3028 0006064  19.2898  48.3139 14.83376544889242"}}, "geometry": {"type": "Point", "coordinates": [-171.66981398233398, 25.744158148343356]}}, {"type": "Feature", "properties": {"norad_id": 34088, "name": "IRIDIUM 33 DEB", "group": "iridium-33-debris", "lat": 22.03318495154504, "lon": -149.30905464212057, "alt_km": 591.0037147682551, "timestamp": "2025-12-09T14:52:26.547508+00:00", "meta": {"OBJECT_NAME": "IRIDIUM 33 DEB", "OBJECT_ID": "1997-051CX", "EPOCH": "2025-12-09T04:49:13.085760", "MEAN_MOTION": 14.91110401, "ECCENTRICITY": 0.00054381, "INCLINATION": 86.3845, "RA_OF_ASC_NODE": 32.3496, "ARG_OF_PERICENTER": 189.6496, "MEAN_ANOMALY": 240.9859, "EPHEMERIS_TYPE": 0, "CLASSIFICATION_TYPE": "U", "NORAD_CAT_ID": 34088, "ELEMENT_SET_NO": 999, "REV_AT_EPOCH": 88689, "BSTAR": 0.0029798605, "MEAN_MOTION_DOT": 0.00029654, "MEAN_MOTION_DDOT": 0}, "tle": {"line1": "1 34088U 97051CX  25343.20084590  .00029654  00000+0  29799-2 0  9993", "line2": "2 34088  86.3845  32.3496 0005438 189.6496 240.9859 14.91110401886897"}}, "geometry": {"type": "Point", "coordinates": [-149.30905464212057, 22.03318495154504]}}, {"type": "Feature", "properties": {"norad_id": 34091, "name": "IRIDIUM 33 DEB", "group": "iridium-33-debris", "lat": 86.0173833922069, "lon": -178.5261789494969, "alt_km": 636.8728089596325, "timestamp": "2025-12-09T14:52:26.547519+00:00", "meta": {"OBJECT_NAME": "IRIDIUM 33 DEB", "OBJECT_ID": "1997-051DA", "EPOCH": "2025-12-09T06:21:21.737952", "MEAN_MOTION": 14.81387494, "ECCENTRICITY": 0.00332386, "INCLINATION": 86.3413, "RA_OF_ASC_NODE": 68.4246, "ARG_OF_PERICENTER": 305.7588, "MEAN_ANOMALY": 54.0544, "EPHEMERIS_TYPE": 0, "CLASSIFICATION_TYPE": "U", "NORAD_CAT_ID": 34091, "ELEMENT_SET_NO": 999, "REV_AT_EPOCH": 87815, "BSTAR": 0.0066530673, "MEAN_MOTION_DOT": 0.00052856, "MEAN_MOTION_DDOT": 0}, "tle": {"line1": "1 34091U 97051DA  25343.26483493  .00052856  00000+0  66531-2 0  9993", "line2": "2 34091  86.3413  68.4246 0033238 305.7588  54.0544 14.81387494878159"}}, "geometry": {"type": "Point", "coordinates": [-178.5261789494969, 86.0173833922069]}}, {"type": "Feature", "properties": {"norad_id": 34097, "name": "IRIDIUM 33 DEB", "group": "iridium-33-debris", "lat": 33.77065170024898, "lon": -179.76258235542545, "alt_km": 814.668302684252, "timestamp": "2025-12-09T14:52:26.547529+00:00", "meta": {"OBJECT_NAME": "IRIDIUM 33 DEB", "OBJECT_ID": "1997-051DG", "EPOCH": "2025-12-09T02:28:58.444608", "MEAN_MOTION": 14.34730397, "ECCENTRICITY": 0.00830075, "INCLINATION": 86.2001, "RA_OF_ASC_NODE": 3.0124, "ARG_OF_PERICENTER": 14.0258, "MEAN_ANOMALY": 346.3214, "EPHEMERIS_TYPE": 0, "CLASSIFICATION_TYPE": "U", "NORAD_CAT_ID": 34097, "ELEMENT_SET_NO": 999, "REV_AT_EPOCH": 87067, "BSTAR": 0.0016398077, "MEAN_MOTION_DOT": 4.847e-05, "MEAN_MOTION_DDOT": 0}, "tle": {"line1": "1 34097U 97051DG  25343.10345422  .00004847  00000+0  16398-2 0  9994", "line2": "2 34097  86.2001   3.0124 0083007  14.0258 346.3214 14.34730397870672"}}, "geometry": {"type": "Point", "coordinates": [-179.76258235542545, 33.77065170024898]}}, {"type": "Feature", "properties": {"norad_id": 34145, "name": "IRIDIUM 33 DEB", "group": "iridium-33-debris", "lat": -30.139128316360832, "lon": -28.289028774232026, "alt_km": 784.3348453295521, "timestamp": "2025-12-09T14:52:26.547540+00:00", "meta": {"OBJECT_NAME": "IRIDIUM 33 DEB", "OBJECT_ID": "1997-051DY", "EPOCH": "2025-12-07T23:03:04.751424", "MEAN_MOTION": 14.42235871, "ECCENTRICITY": 0.0055559, "INCLINATION": 86.2113, "RA_OF_ASC_NODE": 334.6546, "ARG_OF_PERICENTER": 109.0134, "MEAN_ANOMALY": 251.7097, "EPHEMERIS_TYPE": 0, "CLASSIFICATION_TYPE": "U", "NORAD_CAT_ID": 34145, "ELEMENT_SET_NO": 999, "REV_AT_EPOCH": 87569, "BSTAR": 0.0013920574, "MEAN_MOTION_DOT": 4.693e-05, "MEAN_MOTION_DDOT": 0}, "tle": {"line1": "1 34145U 97051DY  25341.96047166  .00004693  00000+0  13921-2 0  9992", "line2": "2 34145  86.2113 334.6546 0055559 109.0134 251.7097 14.42235871875691"}}, "geometry": {"type": "Point", "coordinates": [-28.289028774232026, -30.139128316360832]}}, {"type": "Feature", "properties": {"norad_id": 34146, "name": "IRIDIUM 33 DEB", "group": "iridium-33-debris", "lat": -71.96265822153534, "lon": -177.30793595046345, "alt_km": 719.3562685351817, "timestamp": "2025-12-09T14:52:26.547550+00:00", "meta": {"OBJECT_NAME": "IRIDIUM 33 DEB", "OBJECT_ID": "1997-051DZ", "EPOCH": "2025-12-09T07:09:24.931008", "MEAN_MOTION": 14.49011204, "ECCENTRICITY": 0.00252204, "INCLINATION": 86.2836, "RA_OF_ASC_NODE": 351.3206, "ARG_OF_PERICENTER": 233.8542, "MEAN_ANOMALY": 142.0902, "EPHEMERIS_TYPE": 0, "CLASSIFICATION_TYPE": "U", "NORAD_CAT_ID": 34146, "ELEMENT_SET_NO": 999, "REV_AT_EPOCH": 88057, "BSTAR": 0.0014073518, "MEAN_MOTION_DOT": 5.378e-05, "MEAN_MOTION_DDOT": 0}, "tle": {"line1": "1 34146U 97051DZ  25343.29820522  .00005378  00000+0  14074-2 0  9997", "line2": "2 34146  86.2836 351.3206 0025220 233.8542 142.0902 14.49011204880573"}}, "geometry": {"type": "Point", "coordinates": [-177.30793595046345, -71.96265822153534]}}, {"type": "Feature", "properties": {"norad_id": 34159, "name": "IRIDIUM 33 DEB", "group": "iridium-33-debris", "lat": 84.17254111228742, "lon": 88.26963723076047, "alt_km": 771.5707321167101, "timestamp": "2025-12-09T14:52:26.547561+00:00", "meta": {"OBJECT_NAME": "IRIDIUM 33 DEB", "OBJECT_ID": "1997-051EN", "EPOCH": "2025-12-09T06:07:49.463040", "MEAN_MOTION": 14.38480706, "ECCENTRICITY": 0.00260158, "INCLINATION": 86.3513, "RA_OF_ASC_NODE": 49.7272, "ARG_OF_PERICENTER": 300.13, "MEAN_ANOMALY": 59.7319, "EPHEMERIS_TYPE": 0, "CLASSIFICATION_TYPE": "U", "NORAD_CAT_ID": 34159, "ELEMENT_SET_NO": 999, "REV_AT_EPOCH": 87909, "BSTAR": 0.00066918614, "MEAN_MOTION_DOT": 2.069e-05, "MEAN_MOTION_DDOT": 0}, "tle": {"line1": "1 34159U 97051EN  25343.25543360  .00002069  00000+0  66919-3 0  9999", "line2": "2 34159  86.3513  49.7272 0026015 300.1300  59.7319 14.38480706879090"}}, "geometry": {"type": "Point", "coordinates": [88.26963723076047, 84.17254111228742]}}, {"type": "Feature", "properties": {"norad_id": 34350, "name": "IRIDIUM 33 DEB", "group": "iridium-33-debris", "lat": 36.340115925673125, "lon": 6.869400038725227, "alt_km": 743.3352685942018, "timestamp": "2025-12-09T14:52:26.547571+00:00", "meta": {"OBJECT_NAME": "IRIDIUM 33 DEB", "OBJECT_ID": "1997-051ES", "EPOCH": "2025-12-09T01:39:34.597152", "MEAN_MOTION": 14.45373278, "ECCENTRICITY": 0.00224735, "INCLINATION": 86.3277, "RA_OF_ASC_NODE": 4.4002, "ARG_OF_PERICENTER": 146.6467, "MEAN_ANOMALY": 266.9742, "EPHEMERIS_TYPE": 0, "CLASSIFICATION_TYPE": "U", "NORAD_CAT_ID": 34350, "ELEMENT_SET_NO": 999, "REV_AT_EPOCH": 88240, "BSTAR": 0.00045977346, "MEAN_MOTION_DOT": 1.641e-05, "MEAN_MOTION_DDOT": 0}, "tle": {"line1": "1 34350U 97051ES  25343.06915043  .00001641  00000+0  45977-3 0  9998", "line2": "2 34350  86.3277   4.4002 0022473 146.6467 266.9742 14.45373278882404"}}, "geometry": {"type": "Point", "coordinates": [6.869400038725227, 36.340115925673125]}}, {"type": "Feature", "properties": {"norad_id": 34366, "name": "IRIDIUM 33 DEB", "group": "iridium-33-debris", "lat": -85.79734626292203, "lon": -69.54926835396941, "alt_km": 727.4930727847077, "timestamp": "2025-12-09T14:52:26.547582+00:00", "meta": {"OBJECT_NAME": "IRIDIUM 33 DEB", "OBJECT_ID": "1997-051FJ", "EPOCH": "2025-12-09T05:39:10.972224", "MEAN_MOTION": 14.54009131, "ECCENTRICITY": 0.00222046, "INCLINATION": 86.3692, "RA_OF_ASC_NODE": 50.8372, "ARG_OF_PERICENTER": 150.759, "MEAN_ANOMALY": 267.0776, "EPHEMERIS_TYPE": 0, "CLASSIFICATION_TYPE": "U", "NORAD_CAT_ID": 34366, "ELEMENT_SET_NO": 999, "REV_AT_EPOCH": 88131, "BSTAR": 0.0015877255, "MEAN_MOTION_DOT": 6.735e-05, "MEAN_MOTION_DDOT": 0}, "tle": {"line1": "1 34366U 97051FJ  25343.23554366  .00006735  00000+0  15877-2 0  9995", "line2": "2 34366  86.3692  50.8372 0022204 150.7590 267.0776 14.54009131881314"}}, "geometry": {"type": "Point", "coordinates": [-69.54926835396941, -85.79734626292203]}}]}